[{"OBJECT_NAME":"PHISAT 2","OBJECT_ID":"2024-149C","EPOCH":"2026-03-09T18:55:12.732384","MEAN_MOTION":15.29548632,"ECCENTRICITY":0.00011753,"INCLINATION":97.3806,"RA_OF_ASC_NODE":148.6498,"ARG_OF_PERICENTER":168.623,"MEAN_ANOMALY":191.5037,"EPHEMERIS_TYPE":0,"CLASSIFICATION_TYPE":"U","NORAD_CAT_ID":60470,"ELEMENT_SET_NO":999,"REV_AT_EPOCH":8679,"BSTAR":0.00031420974,"MEAN_MOTION_DOT":8.925e-5,"MEAN_MOTION_DDOT":0},{"OBJECT_NAME":"STARLINK-34208","OBJECT_ID":"2025-144S","EPOCH":"2026-03-09T12:55:07.013568","MEAN_MOTION":15.30211693,"ECCENTRICITY":0.000144,"INCLINATION":53.1575,"RA_OF_ASC_NODE":179.2599,"ARG_OF_PERICENTER":129.4289,"MEAN_ANOMALY":230.6839,"EPHEMERIS_TYPE":0,"CLASSIFICATION_TYPE":"U","NORAD_CAT_ID":64740,"ELEMENT_SET_NO":999,"REV_AT_EPOCH":3972,"BSTAR":0.00079748045,"MEAN_MOTION_DOT":0.00023343,"MEAN_MOTION_DDOT":0}]
